SatCatId,ObjectName,LaunchYear,OrbitalPeriod,LaunchMass,StatusCode,Inclination,Status,UcsData,OrbitClassEstimated,LaunchSiteCountry,Owner,UseType,Purpose,LaunchVehicleClass,TLE1,TLE2,MeanMotion,Eccentricity,OrbitClass
57370,STARLINK-5353,2023,95.84,-1.0,+,43.0,Active,0,LEO,USA,USA,Unknown,Unknown,Unknown,1 57370U 23099AU  24173.70085178  .00000813  00000+0  75281-4 0  9996,2 57370  43.0045  37.2101 0001367 266.1322  93.9365 15.02533953 52731,15.02533953,0.0001367,LEO
57371,STARLINK-6032,2023,95.84,-1.0,+,43.0,Active,0,LEO,USA,USA,Unknown,Unknown,Unknown,1 57371U 23099AV  24172.98291024  .00000621  00000+0  61083-4 0  9997,2 57371  43.0082  41.2799 0001858 250.8941 109.1700 15.02533553 52686,15.02533553,0.0001858,LEO
57372,STARLINK-5975,2023,95.84,-1.0,+,43.0,Active,0,LEO,USA,USA,Unknown,Unknown,Unknown,1 57372U 23099AW  24173.02830142  .00000450  00000+0  48387-4 0  9996,2 57372  43.0062  40.7560 0000997 277.8265  82.2464 15.02535166 52002,15.02535166,9.97e-05,LEO
57373,STARLINK-6370,2023,95.84,-1.0,+,43.01,Active,0,LEO,USA,USA,Unknown,Unknown,Unknown,1 57373U 23099AX  24173.70418256  .00000156  00000+0  26637-4 0  9997,2 57373  43.0050  37.2392 0001427 280.3114  79.7567 15.02535468 52847,15.02535468,0.0001427,LEO
57374,STARLINK-6369,2023,95.84,-1.0,+,43.01,Active,0,LEO,USA,USA,Unknown,Unknown,Unknown,1 57374U 23099AY  24172.87352036  .00001246  00000+0  10730-3 0  9995,2 57374  43.0026  29.1717 0000779 263.8990  96.1764 15.02540888 52865,15.02540888,7.79e-05,LEO
57375,STARLINK-6363,2023,95.84,-1.0,+,43.0,Active,0,LEO,USA,USA,Unknown,Unknown,Unknown,1 57375U 23099AZ  24173.03496039  .00000249  00000+0  33497-4 0  9995,2 57375  43.0045  40.8139 0001350 246.7271 113.3429 15.02538298 52001,15.02538298,0.000135,LEO
57376,STARLINK-6367,2023,95.84,-1.0,+,43.01,Active,0,LEO,USA,USA,Unknown,Unknown,Unknown,1 57376U 23099BA  24173.02497553  .00000001  00000+0  15123-4 0  9999,2 57376  43.0060  40.7399 0001316 269.9100  90.1591 15.02536494 52004,15.02536494,0.0001316,LEO
57377,STARLINK-6358,2023,95.84,-1.0,+,43.0,Active,0,LEO,USA,USA,Unknown,Unknown,Unknown,1 57377U 23099BB  24173.69418880  .00000513  00000+0  53081-4 0  9992,2 57377  43.0063  37.1614 0001842 259.1396 100.9239 15.02539512 52845,15.02539512,0.0001842,LEO
57378,STARLINK-6364,2023,95.84,-1.0,+,43.0,Active,0,LEO,USA,USA,Unknown,Unknown,Unknown,1 57378U 23099BC  24172.98342612  .00000967  00000+0  86643-4 0  9996,2 57378  43.0047  15.2788 0001299 264.7956  95.2738 15.02535052 53034,15.02535052,0.0001299,LEO
57379,STARLINK-6361,2023,95.84,-1.0,+,43.0,Active,0,LEO,USA,USA,Unknown,Unknown,Unknown,1 57379U 23099BD  24173.02608103  .00000846  00000+0  77709-4 0  9992,2 57379  43.0048  40.7509 0001039 275.9882  84.0842 15.02534777 52005,15.02534777,0.0001039,LEO
57380,STARLINK-6366,2023,95.84,-1.0,+,43.01,Active,0,LEO,USA,USA,Unknown,Unknown,Unknown,1 57380U 23099BE  24173.64709942  .00000481  00000+0  50702-4 0  9994,2 57380  43.0045  11.6536 0001228 272.5585  87.5116 15.02530348 53120,15.02530348,0.0001228,LEO
57381,STARLINK-6371,2023,95.84,-1.0,+,43.01,Active,0,LEO,USA,USA,Unknown,Unknown,Unknown,1 57381U 23099BF  24173.63796476  .00001153  00000+0  10040-3 0  9999,2 57381  43.0044  24.5873 0001176 278.6760  81.3949 15.02528787 52984,15.02528787,0.0001176,LEO
57386,STARLING 4,2023,95.99,-1.0,+,99.5,Active,0,LEO,New Zealand,USA,Unknown,Unknown,Unknown,1 57386U 23100A   24173.52192404  .00002675  00000+0  22115-3 0  9992,2 57386  99.5010  16.5966 0004199 304.6958  55.3863 15.00122129 50857,15.00122129,0.0004199,LEO
57387,STARLING 2,2023,95.99,-1.0,+,99.5,Active,0,LEO,New Zealand,USA,Unknown,Unknown,Unknown,1 57387U 23100B   24173.52214471  .00002515  00000+0  20826-3 0  9992,2 57387  99.5014  16.6124 0003494 315.1928  44.9007 15.00129242 50857,15.00129242,0.0003494,LEO
57388,STARLING 1,2023,95.99,-1.0,+,99.51,Active,0,LEO,New Zealand,USA,Unknown,Unknown,Unknown,1 57388U 23100C   24173.52141880  .00002912  00000+0  23975-3 0  9995,2 57388  99.5068  16.8304 0010215  78.6226 281.6138 15.00154046 50855,15.00154046,0.0010215,LEO
57389,STARLING 3,2023,95.99,-1.0,+,99.5,Active,0,LEO,New Zealand,USA,Unknown,Unknown,Unknown,1 57389U 23100D   24173.52237079  .00002659  00000+0  21989-3 0  9993,2 57389  99.5006  16.6055 0003804 310.2933  49.7951 15.00120655 50850,15.00120655,0.0003804,LEO
57390,LEMUR-2-MANO,2023,95.67,-1.0,+,99.49,Active,0,LEO,New Zealand,USA,Unknown,Unknown,Unknown,1 57390U 23100E   24173.51398544  .00008510  00000+0  60081-3 0  9997,2 57390  99.4918  18.4816 0012570 278.6069  81.3727 15.05225004 50936,15.05225004,0.001257,LEO
57391,LEMUR-2-DEVERILL-M-T,2023,95.71,-1.0,+,99.47,Active,0,LEO,New Zealand,USA,Unknown,Unknown,Unknown,1 57391U 23100F   24173.54243678  .00004602  00000+0  33372-3 0  9999,2 57391  99.4704  17.9999 0012236 277.5593  82.4237 15.04569516 50942,15.04569516,0.0012236,LEO
57392,LEO 3,2023,105.27,-1.0,+,99.48,Active,0,LEO,New Zealand,Canada,Unknown,Unknown,Unknown,1 57392U 23100G   24173.32259113 -.00000018  00000+0  30487-4 0  9990,2 57392  99.4816 296.6654 0017888  89.4290 270.8905 13.67929862 46371,13.67929862,0.0017888,LEO
57399,TIANMU-1 07,2023,94.91,-1.0,+,97.36,Active,0,LEO,PRC,China,Unknown,Unknown,Unknown,1 57399U 23101A   24173.84419480  .00005697  00000+0  28973-3 0  9993,2 57399  97.3628 230.8662 0005841 156.7965 203.3534 15.17213769 51136,15.17213769,0.0005841,LEO
57400,TIANMU-1 08,2023,94.91,-1.0,+,97.36,Active,0,LEO,PRC,China,Unknown,Unknown,Unknown,1 57400U 23101B   24173.81353342  .00005097  00000+0  25942-3 0  9994,2 57400  97.3618 230.7089 0007897 165.7307 194.4151 15.17226731 51120,15.17226731,0.0007897,LEO
57401,TIANMU-1 09,2023,94.91,-1.0,+,97.36,Active,0,LEO,PRC,China,Unknown,Unknown,Unknown,1 57401U 23101C   24173.79648734  .00005199  00000+0  26466-3 0  9999,2 57401  97.3572 230.5322 0008414 162.5773 197.5751 15.17206337 51126,15.17206337,0.0008414,LEO
57402,TIANMU-1 10,2023,94.91,-1.0,+,97.37,Active,0,LEO,PRC,China,Unknown,Unknown,Unknown,1 57402U 23101D   24173.82867527  .00005782  00000+0  29394-3 0  9998,2 57402  97.3653 230.8432 0010614 163.4058 196.7525 15.17187377 51125,15.17187377,0.0010614,LEO
57404,STARLINK-30240,2023,95.84,-1.0,+,43.0,Active,0,LEO,USA,USA,Unknown,Unknown,Unknown,1 57404U 23102A   24173.07020914 -.00000263  00000+0 -43641-5 0  9993,2 57404  43.0032  53.9999 0001343 269.2913  90.7775 15.02536769 51972,15.02536769,0.0001343,LEO
57405,STARLINK-30192,2023,95.84,-1.0,+,43.01,Active,0,LEO,USA,USA,Unknown,Unknown,Unknown,1 57405U 23102B   24173.06687908  .00000015  00000+0  16204-4 0  9992,2 57405  43.0042  53.9594 0001181 266.8555  93.2152 15.02534613 51973,15.02534613,0.0001181,LEO
57406,STARLINK-30195,2023,95.84,-1.0,+,43.0,Active,0,LEO,USA,USA,Unknown,Unknown,Unknown,1 57406U 23102C   24173.72833013  .00001192  00000+0  10334-3 0  9990,2 57406  43.0034  50.3347 0001007 281.0429  79.0300 15.02530518 52077,15.02530518,0.0001007,LEO
57407,STARLINK-30207,2023,95.84,-1.0,+,43.0,Active,0,LEO,USA,USA,Unknown,Unknown,Unknown,1 57407U 23102D   24173.03052133  .00000138  00000+0  25289-4 0  9996,2 57407  43.0045  40.7780 0001095 261.3998  98.6720 15.02536815 52139,15.02536815,0.0001095,LEO
57408,STARLINK-30205,2023,95.84,-1.0,+,43.0,Active,0,LEO,USA,USA,Unknown,Unknown,Unknown,1 57408U 23102E   24173.71833589  .00000215  00000+0  31024-4 0  9994,2 57408  43.0064  50.2599 0001421 263.3965  96.6715 15.02536853 52071,15.02536853,0.0001421,LEO
57409,STARLINK-30222,2023,95.84,-1.0,+,43.0,Active,0,LEO,USA,USA,Unknown,Unknown,Unknown,1 57409U 23102F   24173.04359089 -.00001252  00000+0 -77712-4 0  9997,2 57409  43.0037  53.8000 0000430 303.7487  56.3314 15.02520269 51975,15.02520269,4.3e-05,LEO
57410,STARLINK-30172,2023,95.84,-1.0,+,43.01,Active,0,LEO,USA,USA,Unknown,Unknown,Unknown,1 57410U 23102G   24173.05022672 -.00000152  00000+0  37826-5 0  9995,2 57410  43.0065  53.8339 0000930 275.1208  84.9528 15.02535904 51977,15.02535904,9.3e-05,LEO
57411,STARLINK-30214,2023,95.84,-1.0,+,43.0,Active,0,LEO,USA,USA,Unknown,Unknown,Unknown,1 57411U 23102H   24173.08674365 -.00000223  00000+0 -14014-5 0  9995,2 57411  43.0048  53.2704 0001260 263.5755  96.4944 15.02536223 51935,15.02536223,0.000126,LEO
57412,STARLINK-30182,2023,95.84,-1.0,+,43.0,Active,0,LEO,USA,USA,Unknown,Unknown,Unknown,1 57412U 23102J   24173.04690242  .00000127  00000+0  24482-4 0  9994,2 57412  43.0039  53.8242 0001414 266.0616  94.0065 15.02533265 51979,15.02533265,0.0001414,LEO
57413,STARLINK-30191,2023,95.84,-1.0,+,43.0,Active,0,LEO,USA,USA,Unknown,Unknown,Unknown,1 57413U 23102K   24173.10339107 -.00000249  00000+0 -33720-5 0  9995,2 57413  43.0037  53.3814 0001001 276.1256  83.9472 15.02532384 51983,15.02532384,0.0001001,LEO
57414,STARLINK-30193,2023,95.84,-1.0,+,43.0,Active,0,LEO,USA,USA,Unknown,Unknown,Unknown,1 57414U 23102L   24173.04024411  .00000361  00000+0  41829-4 0  9999,2 57414  43.0001  53.7759 0001250 269.6565  90.4134 15.02532027 51974,15.02532027,0.000125,LEO
57415,STARLINK-30208,2023,95.84,-1.0,+,43.0,Active,0,LEO,USA,USA,Unknown,Unknown,Unknown,1 57415U 23102M   24173.10006025  .00000198  00000+0  29737-4 0  9990,2 57415  43.0041  53.3617 0001065 269.7647  90.3073 15.02533631 51933,15.02533631,0.0001065,LEO
57416,STARLINK-30224,2023,95.84,-1.0,+,43.0,Active,0,LEO,USA,USA,Unknown,Unknown,Unknown,1 57416U 23102N   24173.69503352  .00000280  00000+0  35771-4 0  9997,2 57416  43.0045  50.0853 0001164 265.0653  95.0057 15.02538932 52079,15.02538932,0.0001164,LEO
57417,STARLINK-30043,2023,95.84,-1.0,+,43.0,Active,0,LEO,USA,USA,Unknown,Unknown,Unknown,1 57417U 23102P   24173.09006845  .00000183  00000+0  28602-4 0  9994,2 57417  43.0039  53.2844 0001106 279.3196  80.7522 15.02538032 51982,15.02538032,0.0001106,LEO
57418,STARLINK-30221,2023,95.84,-1.0,+,43.01,Active,0,LEO,USA,USA,Unknown,Unknown,Unknown,1 57418U 23102Q   24173.09340160 -.00000535  00000+0 -24552-4 0  9999,2 57418  43.0043  53.3118 0001126 265.5912  94.4802 15.02537867 51986,15.02537867,0.0001126,LEO
